TDRS 3                  
1 19548U 88091B   18094.33652300 -.00000312  00000-0  00000+0 0  9993
2 19548  14.4397   5.0216 0038161 318.7158 287.6750  1.00268831 95326
SKYNET 4C               
1 20776U 90079A   18092.41412834  .00000111  00000-0  00000+0 0  9996
2 20776  13.9267  13.2580 0003871   0.3248 359.6382  1.00275448100881
TDRS 5                  
1 21639U 91054B   18093.73409627  .00000073  00000-0  00000+0 0  9998
2 21639  14.5341  18.3879 0025729 345.2134 285.2228  1.00264766 97663
TDRS 6                  
1 22314U 93003B   18094.19807917 -.00000305  00000-0  00000+0 0  9999
2 22314  14.0907  21.3702 0007442 329.0813 227.5027  1.00271759 92337
ASTRA 1D                
1 23331U 94070A   18094.10758544 -.00000280  00000-0  00000+0 0  9998
2 23331   7.9908  47.2417 0003835 327.0917 143.7743  1.00271490 86120
BRASILSAT B2            
1 23536U 95016A   18094.24532775 -.00000293  00000-0  00000+0 0  9991
2 23536   7.6209  49.1533 0002892 339.4543 184.2203  1.00271169 84270
AMSC 1                  
1 23553U 95019A   18093.85709484 -.00000129  00000-0  00000+0 0  9990
2 23553  10.4305  37.3810 0005433   1.0701 358.8941  1.00272777 84125
TDRS 7                  
1 23613U 95035B   18094.05967969 -.00000212  00000-0  00000+0 0  9995
2 23613  15.0561  12.0740 0033148   3.6466 282.8397  1.00269501 83108
INMARSAT 3-F1           
1 23839U 96020A   18094.03660385 -.00000009  00000-0  00000+0 0  9994
2 23839   4.5339  66.1547 0006120 310.0886 253.7363  1.00273929 80577
ASTRA 1F                
1 23842U 96021A   18094.14910388  .00000120  00000-0  00000+0 0  9995
2 23842   0.0600  50.5739 0003900 330.0466 269.7802  1.00274956 80297
MSAT M1                 
1 23846U 96022A   18092.89714214 -.00000101  00000-0  00000-0 0  9991
2 23846   8.1762  46.7178 0006244 330.4130  29.5412  1.00273154 80365
INMARSAT 3-F2           
1 24307U 96053A   18094.31365385 -.00000141  00000-0  00000+0 0  9991
2 24307   3.2195  76.2487 0007546 287.3854 286.3598  1.00271895 78987
AMC-1 (GE-1)            
1 24315U 96054A   18093.06555344  .00000048  00000-0  00000-0 0  9994
2 24315   2.1768  83.5610 0002899 295.5896  64.8724  1.00272936 16273
AFRICASAT-2 (MEASAT-2)  
1 24653U 96063B   18093.80241560 -.00000242  00000-0  00000-0 0  9990
2 24653   7.9170  47.6485 0007654 219.3123   1.9895  1.00271379 78415
INMARSAT 3-F3           
1 24674U 96070A   18094.35575025  .00000020  00000-0  00000+0 0  9990
2 24674   4.0020  70.3544 0005543 303.0392 125.3701  1.00271162 77925
AMC-2 (GE-2)            
1 24713U 97002A   18094.42343976 -.00000226  00000-0  00000+0 0  9995
2 24713   4.8738  64.4417 0005021 310.3950 245.4304  1.00271560 28288
INTELSAT 26 (IS-26)     
1 24732U 97007A   18093.94632628 -.00000025  00000-0  00000+0 0  9999
2 24732   7.8973  47.9997 0005550 352.2169 198.4414  1.00272528 77239
GALAXY 25 (G-25)        
1 24812U 97026A   18093.72526795 -.00000182  00000-0  00000+0 0  9996
2 24812   0.1012  92.6821 0003516 280.4578 346.8569  1.00271893 76319
INTELSAT 5 (IS-5)       
1 24916U 97046A   18093.22609027 -.00000160  00000-0  00000-0 0  9995
2 24916   4.1114  69.6630 0002992 310.0104  50.1213  1.00272307 75574
AMC-3 (GE-3)            
1 24936U 97050A   18093.46560237 -.00000279  00000-0  00000+0 0  9997
2 24936   0.9988  91.0039 0002815 284.6872 271.6526  1.00272187 75396
NSS-5                   
1 24957U 97053A   18093.66404182  .00000091  00000-0  00000+0 0  9992
2 24957   4.3977  67.8585 0004065 316.6555  96.9542  1.00273781 75190
ASTRA 1G                
1 25071U 97076A   18093.99649127  .00000091  00000-0  00000+0 0  9991
2 25071   2.9184  77.2456 0003341 297.5169 227.1051  1.00271399 74496
BRASILSAT B3            
1 25152U 98006A   18093.82786500 -.00000300  00000-0  00000+0 0  9998
2 25152   4.5752  66.8522 0002727 301.9080  58.1752  1.00273608 73889
INMARSAT 3-F5           
1 25153U 98006B   18094.33005400 -.00000304  00000-0  00000+0 0  9993
2 25153   3.1572  73.4693 0005363 307.6461 236.3024  1.00273830 73848
NSS-806                 
1 25239U 98014A   18094.21990569 -.00000297  00000-0  00000+0 0  9994
2 25239   0.0674  41.8369 0004899 338.4222 203.8833  1.00272960 73616
CHINASAT 5A (ZX 5A)     
1 25354U 98033A   18093.87759756 -.00000371  00000-0  00000+0 0  9998
2 25354   1.8585  85.4849 0003916 244.1357 303.9946  1.00274010 77194
THOR III                
1 25358U 98035A   18092.64131213 -.00000062  00000-0  00000-0 0  9998
2 25358   5.9134  57.4510 0002601 316.7730  43.2586  1.00272364 72793
INTELSAT 805 (IS-805)   
1 25371U 98037A   18094.35743764 -.00000048  00000-0  00000+0 0  9998
2 25371   0.6365  93.3871 0003519 288.3520 108.5546  1.00273830 72526
ASTRA 2A                
1 25462U 98050A   18094.06229865 -.00000378  00000-0  00000+0 0  9999
2 25462   0.0469 234.5032 0002527 144.4766 309.2785  1.00273283 71690
JCSAT-4A                
1 25630U 99006A   18093.76369021 -.00000220  00000-0  00000-0 0  9990
2 25630   2.8932  78.5519 0005625 286.8029 251.5890  1.00272864 20563
SKYNET 4E               
1 25639U 99009B   18094.20423211 -.00000043  00000-0  00000+0 0  9996
2 25639  10.3711  26.4114 0003808 350.9201 247.5199  1.00275848 69970
ASIASAT 3S              
1 25657U 99013A   18094.05123019 -.00000253  00000-0  00000+0 0  9990
2 25657   3.1037  76.8786 0004191 292.7383 347.1807  1.00271252 69771
NIMIQ 1                 
1 25740U 99027A   18094.44527858 -.00000216  00000-0  00000+0 0  9999
2 25740   0.0382 278.0700 0004873 105.6944 242.6961  1.00271793 69160
ASTRA 1H                
1 25785U 99033A   18093.46528937 -.00000293  00000-0  00000+0 0  9990
2 25785   4.3815  68.0084 0003220 304.2949 279.8159  1.00268795 68737
ABS-7                   
1 25894U 99046A   18093.81389080 -.00000382  00000-0  00000-0 0  9998
2 25894   0.0308 119.2348 0003004 283.5087 198.4455  1.00273524 67080
ABS-6                   
1 25924U 99053A   18094.02415554 -.00000138  00000-0  00000+0 0  9998
2 25924   0.0405  81.9754 0002880 318.5850 319.4491  1.00272190 67832
TELSTAR 12 (ORION 2)    
1 25949U 99059A   18094.48530907 -.00000080  00000-0  00000+0 0  9997
2 25949   1.5538  87.5285 0003099 285.7240 245.0002  1.00272758 67498
AMC-4 (GE-4)            
1 25954U 99060A   18092.84384755  .00000066  00000-0  00000+0 0  9994
2 25954   0.0602  89.3462 0002575 277.8833 352.7602  1.00270425 67430
GALAXY 11 (G-11)        
1 26038U 99071A   18094.54004515  .00000119  00000-0  00000+0 0  9991
2 26038   0.1182  87.4610 0000459 299.1651  45.4659  1.00272576 67062
SUPERBIRD-B2            
1 26095U 00012A   18093.61538187 -.00000112  00000-0  00000-0 0  9990
2 26095   1.0221  91.7779 0003208 288.4253 195.1850  1.00272095 15141
ASIASTAR                
1 26107U 00016A   18093.93811839 -.00000350  00000-0  00000-0 0  9995
2 26107   2.2781  81.1278 0004893 301.3453 252.4290  1.00270861 65884
EUTELSAT 80A            
1 26369U 00028A   18094.40184845 -.00000120  00000-0  00000+0 0  9995
2 26369   1.6268  85.0298 0006980 291.2794 308.3101  1.00272213 65432
TDRS 8                  
1 26388U 00034A   18093.36775253 -.00000247  00000-0  00000-0 0  9997
2 26388   7.9690  53.4410 0010281 284.7967  75.0914  1.00273804 65138
ECHOSTAR 6              
1 26402U 00038A   18094.23063734 -.00000164  00000-0  00000+0 0  9996
2 26402   4.7328  65.6193 0003189 303.4536 170.2335  1.00272295 64879
INTELSAT 9 (IS-9)       
1 26451U 00043A   18094.21018301 -.00000233  00000-0  00000+0 0  9991
2 26451   4.1004  69.8802 0003394 320.7872 207.9716  1.00271844 64807
BRASILSAT B4            
1 26469U 00046A   18092.95710676 -.00000189  00000-0  00000-0 0  9997
2 26469   2.2601  83.3612 0003285 296.2812  64.1597  1.00273687 64917
NILESAT 102             
1 26470U 00046B   18094.48521530 -.00000076  00000-0  00000+0 0  9992
2 26470   2.2905  82.3011 0005039 285.7392 352.3368  1.00272672 64600
ASTRA 2B                
1 26494U 00054A   18094.20983579 -.00000171  00000-0  00000+0 0  9998
2 26494   2.8094  77.9152 0006979 312.4265 218.0604  1.00272450 64197
AMC-7 (GE-7)            
1 26495U 00054B   18092.84405606  .00000067  00000-0  00000-0 0  9991
2 26495   0.0697  86.9411 0001360 255.6750  17.3653  1.00274099 64185
NSS-11 (AAP-1)          
1 26554U 00059A   18094.15952118  .00000007  00000-0  00000+0 0  9996
2 26554   0.0363  73.1867 0002533 312.4731  40.1691  1.00273411 64136
N-SAT-110 (JCSAT-110)   
1 26559U 00060A   18094.06229865 -.00000370  00000-0  00000+0 0  9993
2 26559   0.0777  94.0451 0001467 349.6786 241.0959  1.00272265 64065
AMC-6 (GE-6)            
1 26580U 00067A   18094.45034741 -.00000234  00000-0  00000+0 0  9993
2 26580   0.0418  79.3663 0002681 312.1652 240.2868  1.00272986 63944
INTELSAT 12 (IS-12)     
1 26590U 00068A   18094.14910388  .00000118  00000-0  00000+0 0  9991
2 26590   1.1082  91.0585 0003089 307.0682 252.9427  1.00273667 63754
INTELSAT 1R (IS-1R)     
1 26608U 00072A   18093.69455685 -.00000156  00000-0  00000-0 0  9993
2 26608   0.9207  92.4104 0002382 267.6639 239.0268  1.00271894 11279
ANIK F1                 
1 26624U 00076A   18093.76469835 -.00000093  00000-0  00000+0 0  9994
2 26624   0.0157 179.8331 0001727 231.8490 308.3210  1.00272969 63687
ASTRA 2D                
1 26638U 00081A   18093.49270472  .00000030  00000-0  00000+0 0  9992
2 26638   4.2097  68.6906 0001801 302.2046  57.9198  1.00273237 63341
AMC-8 (GE-8)            
1 26639U 00081B   18094.55894934  .00000087  00000-0  00000+0 0  9998
2 26639   0.0374  76.5267 0002243 242.1529 296.3405  1.00271039 63237
SKYNET 4F               
1 26695U 01005B   18094.21504286 -.00000262  00000-0  00000+0 0  9994
2 26695   9.2170  34.6288 0002901 334.9093 226.3383  1.00275846 62832
EUTELSAT 33C            
1 26719U 01011A   18093.69262519  .00000136  00000-0  00000+0 0  9998
2 26719   0.1676  76.4532 0006873 312.1230  85.8333  1.00275580 62534
